0 IRIDIUM 126
1 42809U 17039G   24013.50706979  .00000482  00000-0  16502-3 0  9997
2 42809  86.3955   3.7745 0002323  98.1052 262.0408 14.34217711343005
0 IRIDIUM 124
1 42810U 17039H   24012.86559715  .00000768  00000-0  22235-3 0  9998
2 42810  86.4501 300.7951 0001915  82.1983 277.9435 14.43280566347272
0 IRIDIUM 128
1 42811U 17039J   24013.49780066  .00000509  00000-0  17472-3 0  9994
2 42811  86.3951  35.2890 0002210  88.5981 271.5468 14.34221708343039
0 IRIDIUM 121
1 42812U 17039K   24013.10748870 -.00000021  00000-0 -14505-4 0  9996
2 42812  86.3970   3.9589 0002112  84.1979 275.9458 14.34218671342949
0 IRIDIUM 133
1 42955U 17061A   24012.55275879  .00000468  00000-0  16011-3 0  9997
2 42955  86.3953  35.7802 0002355  91.4648 268.6818 14.34220294327690
0 IRIDIUM 100
1 42956U 17061B   24013.45339431  .00000469  00000-0  16021-3 0  9995
2 42956  86.3951  35.3428 0002200  89.4148 270.7300 14.34224044327822
0 IRIDIUM 122
1 42957U 17061C   24012.58447077  .00000457  00000-0  15627-3 0  9993
2 42957  86.3952  35.7043 0002223  86.3037 273.8413 14.34221344327705
0 IRIDIUM 129
1 42958U 17061D   24012.60984316  .00000442  00000-0  15080-3 0  9996
2 42958  86.3953  35.7513 0002296  88.4605 271.6853 14.34219382327728
